[{"OBJECT_NAME":"STARLINK-2517","OBJECT_ID":"2021-036AK","EPOCH":"2026-03-10T00:00:02.999808","MEAN_MOTION":15.31001061,"ECCENTRICITY":0.00014361,"INCLINATION":53.1608,"RA_OF_ASC_NODE":87.075,"ARG_OF_PERICENTER":91.5522,"MEAN_ANOMALY":44.4443,"EPHEMERIS_TYPE":0,"CLASSIFICATION_TYPE":"U","NORAD_CAT_ID":48309,"ELEMENT_SET_NO":999,"REV_AT_EPOCH":579,"BSTAR":0.001597019,"MEAN_MOTION_DOT":0.00048443,"MEAN_MOTION_DDOT":0},{"OBJECT_NAME":"OBJECT A","OBJECT_ID":"2023-104A","EPOCH":"2026-03-06T18:47:13.750656","MEAN_MOTION":15.33350758,"ECCENTRICITY":0.00093331,"INCLINATION":97.2792,"RA_OF_ASC_NODE":135.5625,"ARG_OF_PERICENTER":122.1915,"MEAN_ANOMALY":238.0234,"EPHEMERIS_TYPE":0,"CLASSIFICATION_TYPE":"U","NORAD_CAT_ID":57424,"ELEMENT_SET_NO":999,"REV_AT_EPOCH":14634,"BSTAR":0.00048200218,"MEAN_MOTION_DOT":0.00015492,"MEAN_MOTION_DDOT":0}]
